OBJECT_NAME,OBJECT_ID,EPOCH,MEAN_MOTION,ECCENTRICITY,INCLINATION,RA_OF_ASC_NODE,ARG_OF_PERICENTER,MEAN_ANOMALY,EPHEMERIS_TYPE,CLASSIFICATION_TYPE,NORAD_CAT_ID,ELEMENT_SET_NO,REV_AT_EPOCH,BSTAR,MEAN_MOTION_DOT,MEAN_MOTION_DDOT
STARLINK-32944,2025-032T,2026-06-17T22:00:02.530944,15.27583953,.00027305,42.9993,130.4337,282.9065,77.1482,0,U,63022,999,7594,.51258903E-3,.13872E-3,0
STARLINK-32943,2025-032U,2026-06-16T15:08:09.501792,15.27582314,.0001254,43.0007,137.1227,267.6901,92.3807,0,U,63023,999,7575,.45227099E-3,.12205E-3,0
STARLINK-32803,2025-032V,2026-06-17T22:25:43.835232,15.27592032,.00031269,43.0040,129.7024,291.0389,69.0128,0,U,63024,999,7579,.5853793E-3,.15888E-3,0
STARLINK-32926,2025-032W,2026-06-17T05:00:46.609056,15.27605303,.00008478,42.9988,133.7091,284.3112,75.7646,0,U,63025,999,7584,.59174515E-3,.1607E-3,0
STARLINK-32798,2025-034A,2026-06-17T23:28:13.204704,15.30214092,.00002472,53.1598,164.9227,95.5702,264.5327,0,U,63029,999,7426,.70339636E-3,.2054E-3,0
STARLINK-32779,2025-034B,2026-06-18T06:27:28.835136,15.34397110,.00010784,53.1595,163.8975,86.6543,273.4583,0,U,63030,999,7430,.29070195E-3,.9457E-4,0
STARLINK-32716,2025-034C,2026-06-18T02:15:27.227232,15.34412342,.00009849,53.1589,150.7300,75.0974,285.0137,0,U,63031,999,7447,.81180063E-3,.27162E-3,0
STARLINK-32776,2025-034D,2026-06-18T02:48:46.628640,15.34404356,.00020559,53.1574,150.8698,126.9263,233.1928,0,U,63032,999,7447,.3979801E-3,.13095E-3,0
STARLINK-32772,2025-034E,2026-06-18T02:46:09.569856,15.30207989,.00016309,53.1579,151.5732,123.5070,236.6086,0,U,63033,999,7446,.51979419E-3,.15071E-3,0
STARLINK-32830,2025-034F,2026-06-17T22:40:07.780800,15.31714607,.00006873,53.1596,151.9304,85.6444,274.4636,0,U,63034,999,7444,.70479059E-3,.21579E-3,0
STARLINK-32801,2025-034G,2026-06-18T02:27:34.292736,15.34398487,.00012014,53.1573,150.7838,98.5906,261.5233,0,U,63035,999,7446,.23862794E-3,.7694E-4,0
STARLINK-32818,2025-034H,2026-06-18T03:05:54.966624,15.30201417,.00011755,53.1579,151.6601,79.6032,280.5101,0,U,63036,999,7446,.30808873E-3,.8777E-4,0
STARLINK-32810,2025-034J,2026-06-18T03:16:03.259776,15.34388987,.00008112,53.1595,150.9964,101.0306,259.0788,0,U,63037,999,7447,.4818725E-3,.15934E-3,0
STARLINK-32812,2025-034K,2026-06-18T03:11:59.275680,15.30205041,.00011324,53.1588,151.6771,124.5582,235.5526,0,U,63038,999,7446,.1851812E-3,.513E-4,0
STARLINK-32811,2025-034L,2026-06-17T22:52:50.547648,15.34415925,.00008594,53.1574,151.9836,61.7229,298.3860,0,U,63039,999,7444,.32778176E-3,.1072E-3,0
STARLINK-32832,2025-034M,2026-06-18T03:15:16.496640,15.31709173,.0001467,53.1586,150.9899,82.6040,277.5128,0,U,63040,999,7447,.45000904E-3,.13629E-3,0
STARLINK-32820,2025-034N,2026-06-18T03:04:24.510144,15.30224510,.00010597,53.1586,151.6501,81.7417,278.3704,0,U,63041,999,7446,.40304022E-3,.11605E-3,0
STARLINK-32795,2025-034P,2026-06-18T02:24:32.573664,15.34395016,.00011678,53.1573,150.7665,92.3663,267.7474,0,U,63042,999,7447,.25663267E-3,.8303E-4,0
STARLINK-32827,2025-034Q,2026-06-18T00:23:42.690912,15.34412949,.00002964,53.1568,163.7399,50.7950,309.3078,0,U,63043,999,7428,.68228975E-3,.22756E-3,0
STARLINK-32735,2025-034R,2026-06-18T03:04:02.197344,15.34394089,.00011752,53.1579,163.0150,109.0303,251.0827,0,U,63044,999,7430,.72409401E-3,.24163E-3,0
STARLINK-32828,2025-034S,2026-06-18T03:03:40.656096,15.30212019,.00015268,53.1590,164.4274,27.8989,332.2093,0,U,63045,999,7428,.69812514E-3,.20382E-3,0
STARLINK-32738,2025-034T,2026-06-18T03:13:01.376544,15.34411175,.00011399,53.1600,150.9757,73.8467,286.2661,0,U,63046,999,7447,.50061261E-3,.16581E-3,0
STARLINK-32590,2025-034U,2026-06-18T03:07:26.123808,15.30210677,.00012776,53.1588,151.6625,76.8041,283.3102,0,U,63047,999,7445,.67632447E-3,.19731E-3,0
STARLINK-32790,2025-034V,2026-06-17T22:46:47.921664,15.34426343,.00011791,53.1599,151.9540,71.6241,288.4890,0,U,63048,999,7444,.62029131E-3,.20657E-3,0
STARLINK-32829,2025-034W,2026-06-18T00:20:40.961472,15.34410866,.00011984,53.1564,163.7283,96.7135,263.4004,0,U,63049,999,7428,.98551745E-3,.3308E-3,0
STARLINK-32816,2025-034X,2026-06-18T03:25:15.519072,15.34411516,.00010738,53.1571,163.1024,93.8514,266.2612,0,U,63050,999,7430,.45207767E-3,.14934E-3,0
STARLINK-32835,2025-034Y,2026-06-18T03:07:03.925920,15.34391248,.00011159,53.1580,163.0317,92.8183,267.2947,0,U,63051,999,7430,.69714365E-3,.23244E-3,0
STARLINK-11550 [DTC],2025-035A,2026-06-18T06:44:13.176384,15.70894018,.00031274,43.0029,128.7986,265.9940,94.0570,0,U,63052,999,7704,.10343244E-2,.134766E-2,0
STARLINK-11563 [DTC],2025-035B,2026-06-18T06:51:52.413984,15.70869653,.00018078,42.9986,128.8399,263.2106,96.8556,0,U,63053,999,7693,.13147217E-2,.172E-2,0
STARLINK-11347 [DTC],2025-035C,2026-06-18T06:06:11.656512,15.70896285,.00008373,43.0007,129.4800,325.2951,34.7862,0,U,63054,999,7703,.18278831E-2,.241612E-2,0
STARLINK-11558 [DTC],2025-035D,2026-06-17T22:43:29.593056,15.70979584,.00046321,43.0005,130.5852,285.4908,74.5448,0,U,63055,999,7688,.15188744E-2,.200458E-2,0
STARLINK-11392 [DTC],2025-035E,2026-06-18T05:50:53.564064,15.70871957,.00022784,43.0016,129.3933,258.2765,101.7848,0,U,63056,999,7703,.1035033E-2,.13472E-2,0
STARLINK-11406 [DTC],2025-035F,2026-06-18T06:59:31.135776,15.70856139,.00014306,43.0015,128.8807,256.8423,103.2285,0,U,63057,999,7692,.71983843E-3,.93019E-3,0
STARLINK-11418 [DTC],2025-035G,2026-06-18T06:13:52.244544,15.70914791,.00012106,43.0010,129.5210,304.4197,55.6556,0,U,63058,999,7691,.19551225E-2,.259215E-2,0
STARLINK-11509 [DTC],2025-035H,2026-06-18T05:58:32.696256,15.70887034,.00021064,43.0007,129.4339,272.1230,87.9397,0,U,63059,999,7691,.15274558E-2,.200751E-2,0
STARLINK-11403 [DTC],2025-035J,2026-06-18T07:14:48.654528,15.70801265,.00016466,43.0017,128.9645,283.0554,77.0129,0,U,63060,999,7704,.80512905E-3,.103992E-2,0
STARLINK-11409 [DTC],2025-035K,2026-06-17T00:52:34.486464,15.70951000,.00038877,43.0020,136.6810,283.4760,76.5674,0,U,63061,999,7684,.10656415E-2,.139286E-2,0
STARLINK-11412 [DTC],2025-035L,2026-06-18T07:07:09.887808,15.70887034,.0001419,43.0010,128.9202,265.3110,94.7596,0,U,63062,999,7704,.1298296E-2,.169924E-2,0
STARLINK-11399 [DTC],2025-035M,2026-06-18T06:36:34.781184,15.70890776,.00022283,43.0029,128.7496,274.9503,85.1110,0,U,63063,999,7704,.12575878E-2,.164506E-2,0
STARLINK-11408 [DTC],2025-035N,2026-06-18T00:22:41.201760,15.70870803,.00012922,43.0007,130.2402,248.8660,111.2070,0,U,63064,999,7700,.53735702E-3,.69167E-3,0
STARLINK-33635,2025-035P,2026-06-16T02:52:17.885280,15.27590831,.0002011,43.0049,311.1745,269.9888,90.0733,0,U,63065,999,7478,.82968081E-3,.22647E-3,0
STARLINK-33622,2025-035Q,2026-06-17T08:15:21.429792,15.27593821,.00011701,43.0022,304.0149,276.9504,83.1215,0,U,63066,999,7497,.57550286E-3,.15615E-3,0
STARLINK-33628,2025-035R,2026-06-16T15:51:27.389088,15.27606230,.00017384,43.0023,308.3529,270.8970,89.1683,0,U,63067,999,7486,.7502575E-3,.20457E-3,0
STARLINK-33627,2025-035S,2026-06-18T06:00:02.000160,15.27570189,.00017049,43.0030,299.2747,271.8189,240.9200,0,U,63068,999,576,.10963207E-2,.3002E-3,0
STARLINK-33620,2025-035T,2026-06-17T02:33:54.458784,15.27591663,.0000692,43.0006,305.6804,73.8726,286.2201,0,U,63069,999,7492,.57679789E-3,.15649E-3,0
STARLINK-33604,2025-035U,2026-06-17T01:36:44.528256,15.27598997,.00022502,43.0005,306.2511,277.5148,82.5448,0,U,63070,999,7491,.93356672E-3,.25532E-3,0
STARLINK-33624,2025-035V,2026-06-16T15:49:38.263296,15.28068413,.00017374,43.0008,304.8780,289.8588,70.2076,0,U,63071,999,7479,.68727867E-3,.18983E-3,0
STARLINK-33623,2025-035W,2026-06-16T16:02:33.177120,15.27604068,.00006968,42.9950,308.4111,142.9095,217.1805,0,U,63072,999,7486,.82864547E-3,.22627E-3,0
STARLINK-33586,2025-035X,2026-06-16T02:38:52.942272,15.27587392,.00024859,43.0028,304.1668,266.0181,94.0386,0,U,63073,999,7486,.91942652E-3,.25131E-3,0
STARLINK-33605,2025-035Y,2026-06-17T19:23:41.644032,15.27606459,.00027819,43.0062,301.4799,270.5954,89.4579,0,U,63074,999,7503,.58967994E-3,.16013E-3,0
STARLINK-32839,2025-037A,2026-06-18T02:55:24.874752,14.98327812,.00026504,70.0021,101.3221,254.8391,105.2475,0,U,63077,999,7363,.49173133E-4,.494E-5,0
STARLINK-32821,2025-037B,2026-06-18T02:55:10.748352,14.98332485,.00029193,70.0014,101.3166,271.6961,88.3864,0,U,63078,999,7362,.2279492E-3,.2628E-4,0
STARLINK-32817,2025-037C,2026-06-18T02:13:06.435840,14.98337958,.00031163,70.0011,101.2112,260.7189,99.3618,0,U,63079,999,7363,.2195219E-3,.2528E-4,0
STARLINK-32906,2025-037D,2026-06-18T04:55:34.349952,14.98329678,.00028315,70.0015,101.2044,267.3354,92.7481,0,U,63080,999,7365,-.50110959E-3,-.6067E-4,0
STARLINK-32895,2025-037E,2026-06-18T03:13:13.207296,14.98325400,.00034569,70.0014,101.3627,264.4485,95.6280,0,U,63081,999,7350,.43710984E-3,.5126E-4,0
STARLINK-32933,2025-037F,2026-06-18T05:49:39.457056,14.98337531,.00028395,70.0012,100.9315,267.7878,92.2956,0,U,63082,999,7360,.21165212E-3,.2434E-4,0
STARLINK-32932,2025-037G,2026-06-18T02:43:09.602976,14.98338448,.00028496,70.0013,101.2902,267.7193,92.3639,0,U,63083,999,7350,.21713629E-3,.2499E-4,0
STARLINK-32908,2025-037H,2026-06-18T02:31:09.316416,14.98326012,.00029648,70.0014,101.2560,268.5426,91.5393,0,U,63084,999,7350,.45486181E-3,.5338E-4,0
STARLINK-32505,2025-037J,2026-06-18T03:13:27.128928,14.98327049,.00026959,70.0008,101.3597,263.5879,96.4973,0,U,63085,999,7359,.21917988E-3,.2523E-4,0
STARLINK-32914,2025-037K,2026-06-18T05:49:25.153536,14.98336800,.00028753,70.0010,100.9315,267.8902,92.1928,0,U,63086,999,7366,.17955776E-3,.205E-4,0
STARLINK-32918,2025-037L,2026-06-18T06:13:27.579936,14.98335887,.00034436,70.0008,100.9941,258.9476,101.1296,0,U,63087,999,7375,.14918959E-3,.1688E-4,0
STARLINK-32912,2025-037M,2026-06-18T01:55:19.076160,14.98338253,.00027374,70.0011,101.1733,273.4531,86.6314,0,U,63088,999,7374,.32314883E-3,.3766E-4,0
STARLINK-32910,2025-037N,2026-06-18T05:55:39.968832,14.98337503,.0002759,70.0016,100.9479,264.1235,95.9609,0,U,63089,999,7366,.19976952E-3,.2292E-4,0
